QIANFAN-17              
1 60395U 24140S   25246.74641189  .00000116  00000+0  16035-3 0  9998
2 60395  88.9824 309.7772 0016920 130.8085 229.4537 13.50967832 54636
QIANFAN-18              
1 60396U 24140T   25246.72591239  .00000123  00000+0  17166-3 0  9991
2 60396  88.9815 309.3206 0016495 115.5727 244.7132 13.50969628 54024
QIANFAN-19              
1 61552U 24185A   25246.81984526  .00000736  00000+0  37925-3 0  9995
2 61552  88.9761  89.4049 0004876 266.6561  93.4068 14.14142772 55543
QIANFAN-20              
1 61553U 24185B   25246.82120023  .00000654  00000+0  37178-3 0  9990
2 61553  88.9760  89.6278 0004360 320.3250  39.7614 14.08694300 55429
QIANFAN-21              
1 61554U 24185C   25246.79238826  .00001045  00000+0  46305-3 0  9995
2 61554  88.9676  88.6998 0009925 340.3098  19.7709 14.22401577 55766
QIANFAN-22              
1 61555U 24185D   25246.82027077  .00000356  00000+0  29653-3 0  9995
2 61555  88.9746  90.2072 0005171 313.9903  46.0841 13.86249519 55098
QIANFAN-23              
1 61556U 24185E   25246.86504132  .00000857  00000+0  42685-3 0  9998
2 61556  88.9754  89.2556 0005797 283.5488  76.5054 14.16118898 55618
QIANFAN-24              
1 61557U 24185F   25246.80927641  .00001216  00000+0  52790-3 0  9995
2 61557  88.9735  88.8306 0007397 264.8274  95.2074 14.23603382 55805
